[
  {
    "CCSDS_OMM_VERS": "3.0",
    "COMMENT": "GENERATED VIA SPACE-TRACK.ORG API",
    "CREATION_DATE": "2011-11-07T09:05:23",
    "ORIGINATOR": "18 SPCS",
    "OBJECT_NAME": "IRIDIUM 33 DEB",
    "OBJECT_ID": "1997-051UG",
    "CENTER_NAME": "EARTH",
    "REF_FRAME": "TEME",
    "TIME_SYSTEM": "UTC",
    "MEAN_ELEMENT_THEORY": "SGP4",
    "EPOCH": "2011-11-05T12:22:52.760352",
    "MEAN_MOTION": "14.65097967",
    "ECCENTRICITY": "0.00303010",
    "INCLINATION": "86.4252",
    "RA_OF_ASC_NODE": "63.1153",
    "ARG_OF_PERICENTER": "282.8055",
    "MEAN_ANOMALY": "77.3597",
    "EPHEMERIS_TYPE": "0",
    "CLASSIFICATION_TYPE": "U",
    "NORAD_CAT_ID": "35923",
    "ELEMENT_SET_NO": "999",
    "REV_AT_EPOCH": "11861",
    "BSTAR": "0.02395700000000",
    "MEAN_MOTION_DOT": "0.00131886",
    "MEAN_MOTION_DDOT": "0.0000000000000",
    "SEMIMAJOR_AXIS": "7054.902",
    "PERIOD": "98.286",
    "APOAPSIS": "698.144",
    "PERIAPSIS": "655.390",
    "OBJECT_TYPE": "DEBRIS",
    "RCS_SIZE": "SMALL",
    "COUNTRY_CODE": "US",
    "LAUNCH_DATE": "1997-09-14",
    "SITE": "TTMTR",
    "DECAY_DATE": "2012-05-29",
    "FILE": "1183295",
    "GP_ID": "85775380",
    "TLE_LINE0": "0 IRIDIUM 33 DEB",
    "TLE_LINE1": "1 35923U 97051UG  11309.51588843  .00131886  00000-0  23957-1 0  9994",
    "TLE_LINE2": "2 35923 086.4252 063.1153 0030301 282.8055 077.3597 14.65097967118616"
  },
  {
    "CCSDS_OMM_VERS": "3.0",
    "COMMENT": "GENERATED VIA SPACE-TRACK.ORG API",
    "CREATION_DATE": "2013-11-16T01:32:47",
    "ORIGINATOR": "18 SPCS",
    "OBJECT_NAME": "IRIDIUM 33 DEB",
    "OBJECT_ID": "1997-051UH",
    "CENTER_NAME": "EARTH",
    "REF_FRAME": "TEME",
    "TIME_SYSTEM": "UTC",
    "MEAN_ELEMENT_THEORY": "SGP4",
    "EPOCH": "2013-11-06T04:44:11.761440",
    "MEAN_MOTION": "15.32105359",
    "ECCENTRICITY": "0.00264500",
    "INCLINATION": "86.3852",
    "RA_OF_ASC_NODE": "106.6330",
    "ARG_OF_PERICENTER": "325.0732",
    "MEAN_ANOMALY": "34.9484",
    "EPHEMERIS_TYPE": "0",
    "CLASSIFICATION_TYPE": "U",
    "NORAD_CAT_ID": "35924",
    "ELEMENT_SET_NO": "999",
    "REV_AT_EPOCH": "22530",
    "BSTAR": "0.03393300000000",
    "MEAN_MOTION_DOT": "0.01162381",
    "MEAN_MOTION_DDOT": "0.0000000000000",
    "SEMIMAJOR_AXIS": "6847.673",
    "PERIOD": "93.988",
    "APOAPSIS": "487.650",
    "PERIAPSIS": "451.426",
    "OBJECT_TYPE": "DEBRIS",
    "RCS_SIZE": "SMALL",
    "COUNTRY_CODE": "US",
    "LAUNCH_DATE": "1997-09-14",
    "SITE": "TTMTR",
    "DECAY_DATE": "2013-11-14",
    "FILE": "1582104",
    "GP_ID": "94358993",
    "TLE_LINE0": "0 IRIDIUM 33 DEB",
    "TLE_LINE1": "1 35924U 97051UH  13310.19735835  .01162381  00000-0  33933-1 0  9998",
    "TLE_LINE2": "2 35924 086.3852 106.6330 0026450 325.0732 034.9484 15.32105359225303"
  },
  {
    "CCSDS_OMM_VERS": "3.0",
    "COMMENT": "GENERATED VIA SPACE-TRACK.ORG API",
    "CREATION_DATE": "2022-10-14T02:17:06",
    "ORIGINATOR": "18 SPCS",
    "OBJECT_NAME": "IRIDIUM 33 DEB",
    "OBJECT_ID": "1997-051UJ",
    "CENTER_NAME": "EARTH",
    "REF_FRAME": "TEME",
    "TIME_SYSTEM": "UTC",
    "MEAN_ELEMENT_THEORY": "SGP4",
    "EPOCH": "2022-10-13T15:09:52.153632",
    "MEAN_MOTION": "15.49161404",
    "ECCENTRICITY": "0.00242680",
    "INCLINATION": "86.2657",
    "RA_OF_ASC_NODE": "59.2680",
    "ARG_OF_PERICENTER": "317.1261",
    "MEAN_ANOMALY": "42.8104",
    "EPHEMERIS_TYPE": "0",
    "CLASSIFICATION_TYPE": "U",
    "NORAD_CAT_ID": "35925",
    "ELEMENT_SET_NO": "999",
    "REV_AT_EPOCH": "71568",
    "BSTAR": "0.01979700000000",
    "MEAN_MOTION_DOT": "0.01188552",
    "MEAN_MOTION_DDOT": "0.0000000000000",
    "SEMIMAJOR_AXIS": "6797.315",
    "PERIOD": "92.954",
    "APOAPSIS": "435.676",
    "PERIAPSIS": "402.684",
    "OBJECT_TYPE": "DEBRIS",
    "RCS_SIZE": "SMALL",
    "COUNTRY_CODE": "US",
    "LAUNCH_DATE": "1997-09-14",
    "SITE": "TTMTR",
    "DECAY_DATE": "2022-10-22",
    "FILE": "3609636",
    "GP_ID": "215018401",
    "TLE_LINE0": "0 IRIDIUM 33 DEB",
    "TLE_LINE1": "1 35925U 97051UJ  22286.63185363  .01188552  00000-0  19797-1 0  9995",
    "TLE_LINE2": "2 35925  86.2657  59.2680 0024268 317.1261  42.8104 15.49161404715684"
  },
  {
    "CCSDS_OMM_VERS": "3.0",
    "COMMENT": "GENERATED VIA SPACE-TRACK.ORG API",
    "CREATION_DATE": "2024-04-19T20:24:04",
    "ORIGINATOR": "18 SPCS",
    "OBJECT_NAME": "IRIDIUM 33 DEB",
    "OBJECT_ID": "1997-051UK",
    "CENTER_NAME": "EARTH",
    "REF_FRAME": "TEME",
    "TIME_SYSTEM": "UTC",
    "MEAN_ELEMENT_THEORY": "SGP4",
    "EPOCH": "2024-04-19T06:29:39.587712",
    "MEAN_MOTION": "15.46252268",
    "ECCENTRICITY": "0.00189860",
    "INCLINATION": "86.3189",
    "RA_OF_ASC_NODE": "211.4381",
    "ARG_OF_PERICENTER": "264.4835",
    "MEAN_ANOMALY": "95.4256",
    "EPHEMERIS_TYPE": "0",
    "CLASSIFICATION_TYPE": "U",
    "NORAD_CAT_ID": "35926",
    "ELEMENT_SET_NO": "999",
    "REV_AT_EPOCH": "78588",
    "BSTAR": "0.01832000000000",
    "MEAN_MOTION_DOT": "0.00989695",
    "MEAN_MOTION_DDOT": "0.0000000000000",
    "SEMIMAJOR_AXIS": "6805.838",
    "PERIOD": "93.128",
    "APOAPSIS": "440.625",
    "PERIAPSIS": "414.781",
    "OBJECT_TYPE": "DEBRIS",
    "RCS_SIZE": "SMALL",
    "COUNTRY_CODE": "US",
    "LAUNCH_DATE": "1997-09-14",
    "SITE": "TTMTR",
    "DECAY_DATE": "2024-04-30",
    "FILE": "4289403",
    "GP_ID": "255126920",
    "TLE_LINE0": "0 IRIDIUM 33 DEB",
    "TLE_LINE1": "1 35926U 97051UK  24110.27059708  .00989695  00000-0  18320-1 0  9994",
    "TLE_LINE2": "2 35926  86.3189 211.4381 0018986 264.4835  95.4256 15.46252268785884"
  },
  {
    "CCSDS_OMM_VERS": "3.0",
    "COMMENT": "GENERATED VIA SPACE-TRACK.ORG API",
    "CREATION_DATE": "2011-12-01T06:12:06",
    "ORIGINATOR": "18 SPCS",
    "OBJECT_NAME": "IRIDIUM 33 DEB",
    "OBJECT_ID": "1997-051UL",
    "CENTER_NAME": "EARTH",
    "REF_FRAME": "TEME",
    "TIME_SYSTEM": "UTC",
    "MEAN_ELEMENT_THEORY": "SGP4",
    "EPOCH": "2011-11-02T08:21:48.971808",
    "MEAN_MOTION": "14.98956975",
    "ECCENTRICITY": "0.00144250",
    "INCLINATION": "86.4218",
    "RA_OF_ASC_NODE": "60.0276",
    "ARG_OF_PERICENTER": "246.0786",
    "MEAN_ANOMALY": "74.5073",
    "EPHEMERIS_TYPE": "0",
    "CLASSIFICATION_TYPE": "U",
    "NORAD_CAT_ID": "35927",
    "ELEMENT_SET_NO": "999",
    "REV_AT_EPOCH": "11834",
    "BSTAR": "0.06239300000000",
    "MEAN_MOTION_DOT": "0.00810476",
    "MEAN_MOTION_DDOT": "0.0000000000000",
    "SEMIMAJOR_AXIS": "6948.259",
    "PERIOD": "96.066",
    "APOAPSIS": "580.147",
    "PERIAPSIS": "560.101",
    "OBJECT_TYPE": "DEBRIS",
    "RCS_SIZE": "SMALL",
    "COUNTRY_CODE": "US",
    "LAUNCH_DATE": "1997-09-14",
    "SITE": "TTMTR",
    "DECAY_DATE": "2011-11-29",
    "FILE": "1198219",
    "GP_ID": "86141938",
    "TLE_LINE0": "0 IRIDIUM 33 DEB",
    "TLE_LINE1": "1 35927U 97051UL  11306.34848347  .00810476  00000-0  62393-1 0  9990",
    "TLE_LINE2": "2 35927 086.4218 060.0276 0014425 246.0786 074.5073 14.98956975118343"
  },
  {
    "CCSDS_OMM_VERS": "3.0",
    "COMMENT": "GENERATED VIA SPACE-TRACK.ORG API",
    "CREATION_DATE": "2010-05-09T13:53:49",
    "ORIGINATOR": "18 SPCS",
    "OBJECT_NAME": "IRIDIUM 33 DEB",
    "OBJECT_ID": "1997-051UM",
    "CENTER_NAME": "EARTH",
    "REF_FRAME": "TEME",
    "TIME_SYSTEM": "UTC",
    "MEAN_ELEMENT_THEORY": "SGP4",
    "EPOCH": "2010-05-08T17:45:42.511103",
    "MEAN_MOTION": "14.36891558",
    "ECCENTRICITY": "0.00241740",
    "INCLINATION": "86.4634",
    "RA_OF_ASC_NODE": "298.6655",
    "ARG_OF_PERICENTER": "344.4812",
    "MEAN_ANOMALY": "15.7368",
    "EPHEMERIS_TYPE": "0",
    "CLASSIFICATION_TYPE": "U",
    "NORAD_CAT_ID": "35928",
    "ELEMENT_SET_NO": "999",
    "REV_AT_EPOCH": "4895",
    "BSTAR": "0.00493070000000",
    "MEAN_MOTION_DOT": "0.00014666",
    "MEAN_MOTION_DDOT": "0.0000000000000",
    "SEMIMAJOR_AXIS": "7146.928",
    "PERIOD": "100.216",
    "APOAPSIS": "786.070",
    "PERIAPSIS": "751.516",
    "OBJECT_TYPE": "DEBRIS",
    "RCS_SIZE": "SMALL",
    "COUNTRY_CODE": "US",
    "LAUNCH_DATE": "1997-09-14",
    "SITE": "TTMTR",
    "DECAY_DATE": "2011-11-28",
    "FILE": "894005",
    "GP_ID": "77687606",
    "TLE_LINE0": "0 IRIDIUM 33 DEB",
    "TLE_LINE1": "1 35928U 97051UM  10128.74007536  .00014666  00000-0  49307-2 0  9991",
    "TLE_LINE2": "2 35928 086.4634 298.6655 0024174 344.4812 015.7368 14.36891558 48951"
  },
  {
    "CCSDS_OMM_VERS": "3.0",
    "COMMENT": "GENERATED VIA SPACE-TRACK.ORG API",
    "CREATION_DATE": "2025-11-26T18:00:39",
    "ORIGINATOR": "18 SPCS",
    "OBJECT_NAME": "IRIDIUM 33 DEB",
    "OBJECT_ID": "1997-051UN",
    "CENTER_NAME": "EARTH",
    "REF_FRAME": "TEME",
    "TIME_SYSTEM": "UTC",
    "MEAN_ELEMENT_THEORY": "SGP4",
    "EPOCH": "2025-11-26T05:49:52.084416",
    "MEAN_MOTION": "15.00866848",
    "ECCENTRICITY": "0.00195012",
    "INCLINATION": "86.3338",
    "RA_OF_ASC_NODE": "320.4395",
    "ARG_OF_PERICENTER": "83.8676",
    "MEAN_ANOMALY": "276.4778",
    "EPHEMERIS_TYPE": "0",
    "CLASSIFICATION_TYPE": "U",
    "NORAD_CAT_ID": "35929",
    "ELEMENT_SET_NO": "999",
    "REV_AT_EPOCH": "87532",
    "BSTAR": "0.00259355930000",
    "MEAN_MOTION_DOT": "0.00033250",
    "MEAN_MOTION_DDOT": "0.0000000000000",
    "SEMIMAJOR_AXIS": "6942.359",
    "PERIOD": "95.945",
    "APOAPSIS": "577.762",
    "PERIAPSIS": "550.685",
    "OBJECT_TYPE": "DEBRIS",
    "RCS_SIZE": "SMALL",
    "COUNTRY_CODE": "US",
    "LAUNCH_DATE": "1997-09-14",
    "SITE": "TTMTR",
    "DECAY_DATE": null,
    "FILE": "4903404",
    "GP_ID": "303653493",
    "TLE_LINE0": "0 IRIDIUM 33 DEB",
    "TLE_LINE1": "1 35929U 97051UN  25330.24296394  .00033250  00000-0  25936-2 0  9992",
    "TLE_LINE2": "2 35929  86.3338 320.4395 0019501  83.8676 276.4778 15.00866848875323"
  }
]